{"type": "FeatureCollection", "features": [ {"type": "Feature", "properties": {"norad_id": 66912, "name": "1998-067XY", "group": "last-30-days", "lat": -51.25882432563159, "lon": 88.76639787308044, "alt_km": 419.4778424320675, "timestamp": "2025-12-07T05:38:08.686241+00:00", "meta": {"OBJECT_NAME": "1998-067XY", "OBJECT_ID": "1998-067XY", "EPOCH": "2025-12-06T14:31:44.195232", "MEAN_MOTION": 15.50339462, "ECCENTRICITY": 0.00052344, "INCLINATION": 51.6295, "RA_OF_ASC_NODE": 172.8274, "ARG_OF_PERICENTER": 193.0919, "MEAN_ANOMALY": 166.9935, "EPHEMERIS_TYPE": 0, "CLASSIFICATION_TYPE": "U", "NORAD_CAT_ID": 66912, "ELEMENT_SET_NO": 999, "REV_AT_EPOCH": 65, "BSTAR": 0.0011669061, "MEAN_MOTION_DOT": 0.00067549, "MEAN_MOTION_DDOT": 0}, "tle": {"line1": "1 66912U 98067XY  25340.60537263  .00067549  00000+0  11669-2 0  9995", "line2": "2 66912  51.6295 172.8274 0005234 193.0919 166.9935 15.50339462   659"}}, "geometry": {"type": "Point", "coordinates": [88.76639787308044, -51.25882432563159]}}, {"type": "Feature", "properties": {"norad_id": 66913, "name": "2025-284A", "group": "last-30-days", "lat": -36.2709305910099, "lon": -36.12425531894762, "alt_km": 504.45919474455695, "timestamp": "2025-12-07T05:38:08.686251+00:00", "meta": {"OBJECT_NAME": "2025-284A", "OBJECT_ID": "2025-284A", "EPOCH": "2025-12-05T19:30:25.528608", "MEAN_MOTION": 15.20033669, "ECCENTRICITY": 0.00128266, "INCLINATION": 80.4023, "RA_OF_ASC_NODE": 138.5488, "ARG_OF_PERICENTER": 252.3263, "MEAN_ANOMALY": 107.6565, "EPHEMERIS_TYPE": 0, "CLASSIFICATION_TYPE": "U", "NORAD_CAT_ID": 66913, "ELEMENT_SET_NO": 999, "REV_AT_EPOCH": 7, "BSTAR": 0.00014555981, "MEAN_MOTION_DOT": 3.163e-05, "MEAN_MOTION_DDOT": 0}, "tle": {"line1": "1 66913U 25284A   25339.81279547  .00003163  00000+0  14556-3 0  9997", "line2": "2 66913  80.4023 138.5488 0012826 252.3263 107.6565 15.20033669    75"}}, "geometry": {"type": "Point", "coordinates": [-36.12425531894762, -36.2709305910099]}}, {"type": "Feature", "properties": {"norad_id": 66915, "name": "HULIANWANG DIGUI 14A", "group": "last-30-days", "lat": 29.503244263358447, "lon": 168.0841622727553, "alt_km": 874.7815551845233, "timestamp": "2025-12-07T05:38:08.686263+00:00", "meta": {"OBJECT_NAME": "HULIANWANG DIGUI 14A", "OBJECT_ID": "2025-285A", "EPOCH": "2025-12-06T08:58:45.410016", "MEAN_MOTION": 14.06225102, "ECCENTRICITY": 0.00087698, "INCLINATION": 49.9887, "RA_OF_ASC_NODE": 143.2276, "ARG_OF_PERICENTER": 217.1051, "MEAN_ANOMALY": 142.9249, "EPHEMERIS_TYPE": 0, "CLASSIFICATION_TYPE": "U", "NORAD_CAT_ID": 66915, "ELEMENT_SET_NO": 999, "REV_AT_EPOCH": 1, "BSTAR": 1.8511052e-05, "MEAN_MOTION_DOT": -1.22e-06, "MEAN_MOTION_DDOT": 0}, "tle": {"line1": "1 66915U 25285A   25340.37413669 -.00000122  00000+0  18511-4 0  9997", "line2": "2 66915  49.9887 143.2276 0008769 217.1051 142.9249 14.06225102    11"}}, "geometry": {"type": "Point", "coordinates": [168.0841622727553, 29.503244263358447]}}, {"type": "Feature", "properties": {"norad_id": 66916, "name": "HULIANWANG DIGUI 14B", "group": "last-30-days", "lat": 28.93522276115477, "lon": 167.40513796799488, "alt_km": 873.5118153316625, "timestamp": "2025-12-07T05:38:08.686275+00:00", "meta": {"OBJECT_NAME": "HULIANWANG DIGUI 14B", "OBJECT_ID": "2025-285B", "EPOCH": "2025-12-06T12:23:28.538592", "MEAN_MOTION": 14.0595389, "ECCENTRICITY": 0.0008093, "INCLINATION": 50.0119, "RA_OF_ASC_NODE": 142.6984, "ARG_OF_PERICENTER": 262.9615, "MEAN_ANOMALY": 97.037, "EPHEMERIS_TYPE": 0, "CLASSIFICATION_TYPE": "U", "NORAD_CAT_ID": 66916, "ELEMENT_SET_NO": 999, "REV_AT_EPOCH": 3, "BSTAR": 1.7671e-05, "MEAN_MOTION_DOT": -1.23e-06, "MEAN_MOTION_DDOT": 0}, "tle": {"line1": "1 66916U 25285B   25340.51630253 -.00000123  00000+0  17671-4 0  9991", "line2": "2 66916  50.0119 142.6984 0008093 262.9615  97.0370 14.05953890    34"}}, "geometry": {"type": "Point", "coordinates": [167.40513796799488, 28.93522276115477]}}, {"type": "Feature", "properties": {"norad_id": 66917, "name": "HULIANWANG DIGUI 14C", "group": "last-30-days", "lat": 29.313186516726837, "lon": 167.8770456978934, "alt_km": 871.9188201716743, "timestamp": "2025-12-07T05:38:08.686285+00:00", "meta": {"OBJECT_NAME": "HULIANWANG DIGUI 14C", "OBJECT_ID": "2025-285C", "EPOCH": "2025-12-07T02:02:13.148160", "MEAN_MOTION": 14.06462141, "ECCENTRICITY": 0.0009369, "INCLINATION": 50.0016, "RA_OF_ASC_NODE": 140.3652, "ARG_OF_PERICENTER": 270.2146, "MEAN_ANOMALY": 89.7686, "EPHEMERIS_TYPE": 0, "CLASSIFICATION_TYPE": "U", "NORAD_CAT_ID": 66917, "ELEMENT_SET_NO": 999, "REV_AT_EPOCH": 11, "BSTAR": -1.2884e-05, "MEAN_MOTION_DOT": -1.74e-06, "MEAN_MOTION_DDOT": 0}, "tle": {"line1": "1 66917U 25285C   25341.08487440 -.00000174  00000+0 -12884-4 0  9991", "line2": "2 66917  50.0016 140.3652 0009369 270.2146  89.7686 14.06462141   118"}}, "geometry": {"type": "Point", "coordinates": [167.8770456978934, 29.313186516726837]}}, {"type": "Feature", "properties": {"norad_id": 66918, "name": "HULIANWANG DIGUI 14D", "group": "last-30-days", "lat": 29.3869838685455, "lon": 167.96325667593615, "alt_km": 871.8542658025272, "timestamp": "2025-12-07T05:38:08.686295+00:00", "meta": {"OBJECT_NAME": "HULIANWANG DIGUI 14D", "OBJECT_ID": "2025-285D", "EPOCH": "2025-12-07T02:02:08.599200", "MEAN_MOTION": 14.06161406, "ECCENTRICITY": 0.0006252, "INCLINATION": 50.004, "RA_OF_ASC_NODE": 140.3614, "ARG_OF_PERICENTER": 264.6291, "MEAN_ANOMALY": 95.3901, "EPHEMERIS_TYPE": 0, "CLASSIFICATION_TYPE": "U", "NORAD_CAT_ID": 66918, "ELEMENT_SET_NO": 999, "REV_AT_EPOCH": 11, "BSTAR": 6.6281e-06, "MEAN_MOTION_DOT": -1.41e-06, "MEAN_MOTION_DDOT": 0}, "tle": {"line1": "1 66918U 25285D   25341.08482175 -.00000141  00000+0  66281-5 0  9996", "line2": "2 66918  50.0040 140.3614 0006252 264.6291  95.3901 14.06161406   113"}}, "geometry": {"type": "Point", "coordinates": [167.96325667593615, 29.3869838685455]}}, {"type": "Feature", "properties": {"norad_id": 66919, "name": "HULIANWANG DIGUI 14E", "group": "last-30-days", "lat": 29.519571877082377, "lon": 168.12766346618048, "alt_km": 871.9420845511049, "timestamp": "2025-12-07T05:38:08.686304+00:00", "meta": {"OBJECT_NAME": "HULIANWANG DIGUI 14E", "OBJECT_ID": "2025-285E", "EPOCH": "2025-12-06T22:37:25.773888", "MEAN_MOTION": 14.06218665, "ECCENTRICITY": 0.0008024, "INCLINATION": 50.0062, "RA_OF_ASC_NODE": 140.943, "ARG_OF_PERICENTER": 272.1342, "MEAN_ANOMALY": 87.8645, "EPHEMERIS_TYPE": 0, "CLASSIFICATION_TYPE": "U", "NORAD_CAT_ID": 66919, "ELEMENT_SET_NO": 999, "REV_AT_EPOCH": 9, "BSTAR": 8.1603e-06, "MEAN_MOTION_DOT": -1.39e-06, "MEAN_MOTION_DDOT": 0}, "tle": {"line1": "1 66919U 25285E   25340.94265942 -.00000139  00000+0  81603-5 0  9994", "line2": "2 66919  50.0062 140.9430 0008024 272.1342  87.8645 14.06218665    98"}}, "geometry": {"type": "Point", "coordinates": [168.12766346618048, 29.519571877082377]}}, {"type": "Feature", "properties": {"norad_id": 66920, "name": "HULIANWANG DIGUI 14F", "group": "last-30-days", "lat": 29.734353535867733, "lon": 168.39774072462325, "alt_km": 870.7245644861359, "timestamp": "2025-12-07T05:38:08.686313+00:00", "meta": {"OBJECT_NAME": "HULIANWANG DIGUI 14F", "OBJECT_ID": "2025-285F", "EPOCH": "2025-12-07T00:19:41.621952", "MEAN_MOTION": 14.06302954, "ECCENTRICITY": 0.000574, "INCLINATION": 50.0098, "RA_OF_ASC_NODE": 140.6551, "ARG_OF_PERICENTER": 270.9351, "MEAN_ANOMALY": 89.0897, "EPHEMERIS_TYPE": 0, "CLASSIFICATION_TYPE": "U", "NORAD_CAT_ID": 66920, "ELEMENT_SET_NO": 999, "REV_AT_EPOCH": 10, "BSTAR": 6.917e-06, "MEAN_MOTION_DOT": -1.41e-06, "MEAN_MOTION_DDOT": 0}, "tle": {"line1": "1 66920U 25285F   25341.01367618 -.00000141  00000+0  69170-5 0  9996", "line2": "2 66920  50.0098 140.6551 0005740 270.9351  89.0897 14.06302954   108"}}, "geometry": {"type": "Point", "coordinates": [168.39774072462325, 29.734353535867733]}}, {"type": "Feature", "properties": {"norad_id": 66921, "name": "HULIANWANG DIGUI 14G", "group": "last-30-days", "lat": 29.81347522477563, "lon": 168.49955460506428, "alt_km": 870.4279732912255, "timestamp": "2025-12-07T05:38:08.686344+00:00", "meta": {"OBJECT_NAME": "HULIANWANG DIGUI 14G", "OBJECT_ID": "2025-285G", "EPOCH": "2025-12-07T02:01:59.700000", "MEAN_MOTION": 14.06336351, "ECCENTRICITY": 0.0006817, "INCLINATION": 50.0112, "RA_OF_ASC_NODE": 140.3674, "ARG_OF_PERICENTER": 280.5017, "MEAN_ANOMALY": 79.512, "EPHEMERIS_TYPE": 0, "CLASSIFICATION_TYPE": "U", "NORAD_CAT_ID": 66921, "ELEMENT_SET_NO": 999, "REV_AT_EPOCH": 11, "BSTAR": 5.7305e-06, "MEAN_MOTION_DOT": -1.43e-06, "MEAN_MOTION_DDOT": 0}, "tle": {"line1": "1 66921U 25285G   25341.08471875 -.00000143  00000+0  57305-5 0  9994", "line2": "2 66921  50.0112 140.3674 0006817 280.5017  79.5120 14.06336351   113"}}, "geometry": {"type": "Point", "coordinates": [168.49955460506428, 29.81347522477563]}}, {"type": "Feature", "properties": {"norad_id": 66922, "name": "HULIANWANG DIGUI 14H", "group": "last-30-days", "lat": 30.039223649095653, "lon": 168.78958944793615, "alt_km": 869.4436665734529, "timestamp": "2025-12-07T05:38:08.686354+00:00", "meta": {"OBJECT_NAME": "HULIANWANG DIGUI 14H", "OBJECT_ID": "2025-285H", "EPOCH": "2025-12-07T02:01:55.081056", "MEAN_MOTION": 14.06449683, "ECCENTRICITY": 0.0006793, "INCLINATION": 50.0072, "RA_OF_ASC_NODE": 140.3652, "ARG_OF_PERICENTER": 287.9552, "MEAN_ANOMALY": 72.0613, "EPHEMERIS_TYPE": 0, "CLASSIFICATION_TYPE": "U", "NORAD_CAT_ID": 66922, "ELEMENT_SET_NO": 999, "REV_AT_EPOCH": 11, "BSTAR": 7.7769e-05, "MEAN_MOTION_DOT": -2.3e-07, "MEAN_MOTION_DDOT": 0}, "tle": {"line1": "1 66922U 25285H   25341.08466529 -.00000023  00000+0  77769-4 0  9997", "line2": "2 66922  50.0072 140.3652 0006793 287.9552  72.0613 14.06449683   111"}}, "geometry": {"type": "Point", "coordinates": [168.78958944793615, 30.039223649095653]}}]}